CCSDS_OMM_VERS = 2.0
CREATION_DATE  = 
ORIGINATOR     = 

OBJECT_NAME    = UNKNOWN
OBJECT_ID      = 
CENTER_NAME    = EARTH
REF_FRAME      = TEME
TIME_SYSTEM    = UTC
MEAN_ELEMENT_THEORY = SGP/SGP4

EPOCH          = 2026-03-17T01:02:39.944832
MEAN_MOTION    = 13.88200593
ECCENTRICITY   = .013237
INCLINATION    = 82.6926
RA_OF_ASC_NODE = 350.6200
ARG_OF_PERICENTER = 14.0051
MEAN_ANOMALY   = 346.4724

EPHEMERIS_TYPE = 0
CLASSIFICATION_TYPE = U
NORAD_CAT_ID   = 82854
ELEMENT_SET_NO = 999
REV_AT_EPOCH   = 62088
BSTAR          = .15426E-2
MEAN_MOTION_DOT = .199E-4
MEAN_MOTION_DDOT = 0

CCSDS_OMM_VERS = 2.0
CREATION_DATE  = 
ORIGINATOR     = 

OBJECT_NAME    = UNKNOWN
OBJECT_ID      = 
CENTER_NAME    = EARTH
REF_FRAME      = TEME
TIME_SYSTEM    = UTC
MEAN_ELEMENT_THEORY = SGP/SGP4

EPOCH          = 2026-03-20T05:15:43.070400
MEAN_MOTION    = 14.25222602
ECCENTRICITY   = .0040585
INCLINATION    = 99.9940
RA_OF_ASC_NODE = 351.7752
ARG_OF_PERICENTER = 12.9692
MEAN_ANOMALY   = 347.2518

EPHEMERIS_TYPE = 0
CLASSIFICATION_TYPE = U
NORAD_CAT_ID   = 82873
ELEMENT_SET_NO = 999
REV_AT_EPOCH   = 63511
BSTAR          = .11201E-2
MEAN_MOTION_DOT = .2601E-4
MEAN_MOTION_DDOT = 0

CCSDS_OMM_VERS = 2.0
CREATION_DATE  = 
ORIGINATOR     = 

OBJECT_NAME    = UNKNOWN
OBJECT_ID      = 
CENTER_NAME    = EARTH
REF_FRAME      = TEME
TIME_SYSTEM    = UTC
MEAN_ELEMENT_THEORY = SGP/SGP4

EPOCH          = 2026-03-19T04:37:22.024128
MEAN_MOTION    = 14.15339172
ECCENTRICITY   = .0377611
INCLINATION    = 98.6893
RA_OF_ASC_NODE = 64.2304
ARG_OF_PERICENTER = 6.5180
MEAN_ANOMALY   = 354.0711

EPHEMERIS_TYPE = 0
CLASSIFICATION_TYPE = U
NORAD_CAT_ID   = 82875
ELEMENT_SET_NO = 999
REV_AT_EPOCH   = 55811
BSTAR          = .32706E-3
MEAN_MOTION_DOT = .1222E-4
MEAN_MOTION_DDOT = 0

CCSDS_OMM_VERS = 2.0
CREATION_DATE  = 
ORIGINATOR     = 

OBJECT_NAME    = UNKNOWN
OBJECT_ID      = 
CENTER_NAME    = EARTH
REF_FRAME      = TEME
TIME_SYSTEM    = UTC
MEAN_ELEMENT_THEORY = SGP/SGP4

EPOCH          = 2026-03-20T14:21:16.532928
MEAN_MOTION    = 14.33507396
ECCENTRICITY   = .0026353
INCLINATION    = 98.9615
RA_OF_ASC_NODE = 202.9707
ARG_OF_PERICENTER = 124.8849
MEAN_ANOMALY   = 235.4817

EPHEMERIS_TYPE = 0
CLASSIFICATION_TYPE = U
NORAD_CAT_ID   = 82893
ELEMENT_SET_NO = 999
REV_AT_EPOCH   = 43798
BSTAR          = .26586E-2
MEAN_MOTION_DOT = .7339E-4
MEAN_MOTION_DDOT = 0

CCSDS_OMM_VERS = 2.0
CREATION_DATE  = 
ORIGINATOR     = 

OBJECT_NAME    = UNKNOWN
OBJECT_ID      = 
CENTER_NAME    = EARTH
REF_FRAME      = TEME
TIME_SYSTEM    = UTC
MEAN_ELEMENT_THEORY = SGP/SGP4

EPOCH          = 2026-03-18T21:25:05.826720
MEAN_MOTION    = 13.28434607
ECCENTRICITY   = .0770461
INCLINATION    = 65.8357
RA_OF_ASC_NODE = 312.5482
ARG_OF_PERICENTER = 225.2402
MEAN_ANOMALY   = 128.3431

EPHEMERIS_TYPE = 0
CLASSIFICATION_TYPE = U
NORAD_CAT_ID   = 82912
ELEMENT_SET_NO = 999
REV_AT_EPOCH   = 59209
BSTAR          = .52985E-3
MEAN_MOTION_DOT = .1213E-4
MEAN_MOTION_DDOT = 0

CCSDS_OMM_VERS = 2.0
CREATION_DATE  = 
ORIGINATOR     = 

OBJECT_NAME    = UNKNOWN
OBJECT_ID      = 
CENTER_NAME    = EARTH
REF_FRAME      = TEME
TIME_SYSTEM    = UTC
MEAN_ELEMENT_THEORY = SGP/SGP4

EPOCH          = 2026-03-20T09:48:23.414112
MEAN_MOTION    = 13.26359553
ECCENTRICITY   = .0413941
INCLINATION    = 99.8248
RA_OF_ASC_NODE = 233.9045
ARG_OF_PERICENTER = 138.8675
MEAN_ANOMALY   = 224.4440

EPHEMERIS_TYPE = 0
CLASSIFICATION_TYPE = U
NORAD_CAT_ID   = 82961
ELEMENT_SET_NO = 999
REV_AT_EPOCH   = 56864
BSTAR          = .10719E-1
MEAN_MOTION_DOT = .75E-4
MEAN_MOTION_DDOT = 0

CCSDS_OMM_VERS = 2.0
CREATION_DATE  = 
ORIGINATOR     = 

OBJECT_NAME    = UNKNOWN
OBJECT_ID      = 
CENTER_NAME    = EARTH
REF_FRAME      = TEME
TIME_SYSTEM    = UTC
MEAN_ELEMENT_THEORY = SGP/SGP4

EPOCH          = 2026-03-13T16:17:22.427520
MEAN_MOTION    = 13.60232436
ECCENTRICITY   = .0003543
INCLINATION    = 100.1074
RA_OF_ASC_NODE = 160.1438
ARG_OF_PERICENTER = 183.0318
MEAN_ANOMALY   = 177.0799

EPHEMERIS_TYPE = 0
CLASSIFICATION_TYPE = U
NORAD_CAT_ID   = 82965
ELEMENT_SET_NO = 999
REV_AT_EPOCH   = 53681
BSTAR          = .15749E-2
MEAN_MOTION_DOT = .1132E-4
MEAN_MOTION_DDOT = 0

CCSDS_OMM_VERS = 2.0
CREATION_DATE  = 
ORIGINATOR     = 

OBJECT_NAME    = UNKNOWN
OBJECT_ID      = 
CENTER_NAME    = EARTH
REF_FRAME      = TEME
TIME_SYSTEM    = UTC
MEAN_ELEMENT_THEORY = SGP/SGP4

EPOCH          = 2026-03-20T17:04:42.499200
MEAN_MOTION    = 0.99111968
ECCENTRICITY   = .0122012
INCLINATION    = 5.9434
RA_OF_ASC_NODE = 289.7719
ARG_OF_PERICENTER = 254.0773
MEAN_ANOMALY   = 305.1362

EPHEMERIS_TYPE = 0
CLASSIFICATION_TYPE = U
NORAD_CAT_ID   = 83903
ELEMENT_SET_NO = 999
REV_AT_EPOCH   = 4463
BSTAR          = 0
MEAN_MOTION_DOT = .78E-6
MEAN_MOTION_DDOT = 0

CCSDS_OMM_VERS = 2.0
CREATION_DATE  = 
ORIGINATOR     = 

OBJECT_NAME    = UNKNOWN
OBJECT_ID      = 
CENTER_NAME    = EARTH
REF_FRAME      = TEME
TIME_SYSTEM    = UTC
MEAN_ELEMENT_THEORY = SGP/SGP4

EPOCH          = 2026-03-20T10:47:15.366624
MEAN_MOTION    = 1.02660925
ECCENTRICITY   = .0223398
INCLINATION    = 5.5637
RA_OF_ASC_NODE = 296.8889
ARG_OF_PERICENTER = 275.9042
MEAN_ANOMALY   = 299.2003

EPHEMERIS_TYPE = 0
CLASSIFICATION_TYPE = U
NORAD_CAT_ID   = 83934
ELEMENT_SET_NO = 999
REV_AT_EPOCH   = 4628
BSTAR          = 0
MEAN_MOTION_DOT = .35E-6
MEAN_MOTION_DDOT = 0

CCSDS_OMM_VERS = 2.0
CREATION_DATE  = 
ORIGINATOR     = 

OBJECT_NAME    = UNKNOWN
OBJECT_ID      = 
CENTER_NAME    = EARTH
REF_FRAME      = TEME
TIME_SYSTEM    = UTC
MEAN_ELEMENT_THEORY = SGP/SGP4

EPOCH          = 2026-03-17T10:26:46.143456
MEAN_MOTION    = 2.16231542
ECCENTRICITY   = .6166083
INCLINATION    = 22.3835
RA_OF_ASC_NODE = 158.1421
ARG_OF_PERICENTER = 93.9109
MEAN_ANOMALY   = 333.8090

EPHEMERIS_TYPE = 0
CLASSIFICATION_TYPE = U
NORAD_CAT_ID   = 84006
ELEMENT_SET_NO = 999
REV_AT_EPOCH   = 8627
BSTAR          = 0
MEAN_MOTION_DOT = .49E-6
MEAN_MOTION_DDOT = 0

CCSDS_OMM_VERS = 2.0
CREATION_DATE  = 
ORIGINATOR     = 

OBJECT_NAME    = UNKNOWN
OBJECT_ID      = 
CENTER_NAME    = EARTH
REF_FRAME      = TEME
TIME_SYSTEM    = UTC
MEAN_ELEMENT_THEORY = SGP/SGP4

EPOCH          = 2026-03-20T05:35:36.770208
MEAN_MOTION    = 8.07889356
ECCENTRICITY   = .3491405
INCLINATION    = 64.8789
RA_OF_ASC_NODE = 168.2279
ARG_OF_PERICENTER = 7.2220
MEAN_ANOMALY   = 356.7706

EPHEMERIS_TYPE = 0
CLASSIFICATION_TYPE = U
NORAD_CAT_ID   = 84188
ELEMENT_SET_NO = 999
REV_AT_EPOCH   = 4895
BSTAR          = .39698E-1
MEAN_MOTION_DOT = .77757E-3
MEAN_MOTION_DDOT = 0

CCSDS_OMM_VERS = 2.0
CREATION_DATE  = 
ORIGINATOR     = 

OBJECT_NAME    = UNKNOWN
OBJECT_ID      = 
CENTER_NAME    = EARTH
REF_FRAME      = TEME
TIME_SYSTEM    = UTC
MEAN_ELEMENT_THEORY = SGP/SGP4

EPOCH          = 2026-03-20T10:19:22.206432
MEAN_MOTION    = 3.22722165
ECCENTRICITY   = .652887
INCLINATION    = 20.3126
RA_OF_ASC_NODE = 217.4668
ARG_OF_PERICENTER = 166.8326
MEAN_ANOMALY   = 226.0427

EPHEMERIS_TYPE = 0
CLASSIFICATION_TYPE = U
NORAD_CAT_ID   = 84232
ELEMENT_SET_NO = 999
REV_AT_EPOCH   = 10781
BSTAR          = .31814E-1
MEAN_MOTION_DOT = .47858E-3
MEAN_MOTION_DDOT = 0

