UNKNOWN                 
1 82854U          26076.04351788  .00001990  00000+0  15426-2 0  9992
2 82854  82.6926 350.6200 0132370  14.0051 346.4724 13.88200593620888
UNKNOWN                 
1 82873U          26079.21924850  .00002601  00000+0  11201-2 0  9998
2 82873  99.9940 351.7752 0040585  12.9692 347.2518 14.25222602635113
UNKNOWN                 
1 82875U          26078.19261602  .00001222  00000+0  32706-3 0  9997
2 82875  98.6893  64.2304 0377611   6.5180 354.0711 14.15339172558116
UNKNOWN                 
1 82893U          26079.59810802  .00007339  00000+0  26586-2 0  9997
2 82893  98.9615 202.9707 0026353 124.8849 235.4817 14.33507396437984
UNKNOWN                 
1 82912U          26077.89242855  .00001213  00000+0  52985-3 0  9995
2 82912  65.8357 312.5482 0770461 225.2402 128.3431 13.28434607592090
UNKNOWN                 
1 82961U          26079.40860433  .00007500  00000+0  10719-1 0  9998
2 82961  99.8248 233.9045 0413941 138.8675 224.4440 13.26359553568645
UNKNOWN                 
1 82965U          26072.67873180  .00001132  00000+0  15749-2 0  9991
2 82965 100.1074 160.1438 0003543 183.0318 177.0799 13.60232436536810
UNKNOWN                 
1 83903U          26079.71160300  .00000078  00000+0  00000+0 0  9998
2 83903   5.9434 289.7719 0122012 254.0773 305.1362  0.99111968 44630
UNKNOWN                 
1 83934U          26079.44948341  .00000035  00000+0  00000+0 0  9994
2 83934   5.5637 296.8889 0223398 275.9042 299.2003  1.02660925 46287
UNKNOWN                 
1 84006U          26076.43525629  .00000049  00000+0  00000+0 0  9996
2 84006  22.3835 158.1421 6166083  93.9109 333.8090  2.16231542 86271
UNKNOWN                 
1 84188U          26079.23306447  .00077757  00000+0  39698-1 0  9990
2 84188  64.8789 168.2279 3491405   7.2220 356.7706  8.07889356 48951
UNKNOWN                 
1 84232U          26079.43011813  .00047858  00000+0  31814-1 0  9993
2 84232  20.3126 217.4668 6528870 166.8326 226.0427  3.22722165107817
